IRIDIUM 36              
1 24967U 97056C   25012.70806125  .00000609  00000+0  19745-3 0  9997
2 24967  86.3950 238.2657 0002048  92.6981 267.4451 14.37349974429884
IRIDIUM 39              
1 25042U 97069D   25012.82362510  .00000986  00000+0  25495-3 0  9991
2 25042  86.3907 277.7521 0020049 103.3872 256.9569 14.48819986426460
IRIDIUM 38              
1 25043U 97069E   25012.85504167  .00000731  00000+0  23616-3 0  9992
2 25043  86.3967 298.5331 0000640 137.2620 222.8628 14.37854943423633
IRIDIUM 42              
1 25077U 97077A   25012.88055983  .00000679  00000+0  22652-3 0  9998
2 25077  86.3975 304.5020 0001494  84.3030 275.8337 14.36110800418902
IRIDIUM 45              
1 25104U 97082A   25012.82123636  .00027651  00000+0  11899-2 0  9999
2 25104  86.3646 122.9114 0133463 190.3028 169.5475 15.14672201428718
IRIDIUM 24              
1 25105U 97082B   25012.86948029  .00000837  00000+0  25018-3 0  9991
2 25105  86.3947 146.1552 0010022 223.9062 136.1342 14.41810030421082
